     3.02           N: GNSS NAV DATA    G: GPS              RINEX VERSION / TYPE
GNSS-SDR            suhjw               20250730 042500 UTC PGM / RUN BY / DATE 
GPS NAVIGATION MESSAGE FILE GENERATED BY GNSS-SDR           COMMENT             
GNSS-SDR VERSION 0.0.20                                     COMMENT             
See https://gnss-sdr.org                                    COMMENT             
GPSA    .1397D-07   .2235D-07  -.5960D-07  -.1192D-06       IONOSPHERIC CORR    
GPSB    .1106D+06   .1311D+06  -.6554D+05  -.2621D+06       IONOSPHERIC CORR    
GPUT   .1862645149D-08  .532907052D-14 503808 2377          TIME SYSTEM CORR    
    18    18   137     7                                    LEAP SECONDS        
                                                            END OF HEADER       
G05 2025 07 30 06 00 00 -.216069165617D-03 -.909494701773D-12  .000000000000D+00
      .280000000000D+02  .274375000000D+02  .413767235066D-08  .125426265001D+01
      .128708779812D-05  .580123532563D-02  .786408782005D-05  .515359276009D+04
      .280800000000D+06 -.558793544769D-08  .166275766721D+01 -.651925802231D-07
      .977036754005D+00  .240375000000D+03  .140640404706D+01 -.800711924294D-08
      .255367779950D-09  .100000000000D+01  .237700000000D+04  .100000000000D+01
      .000000000000D+00  .000000000000D+00 -.107102096081D-07  .280000000000D+02
      .275118000000D+06  .000000000000D+00                                      
G07 2025 07 30 05 59 44 -.538663007319D-04 -.488853402203D-11  .000000000000D+00
      .190000000000D+02 -.100312500000D+02  .458126225653D-08 -.189871281116D+01
     -.623986124992D-06  .198023476405D-01  .975653529167D-05  .515370374298D+04
      .280784000000D+06  .333413481712D-06 -.247975103558D+01  .558793544769D-08
      .950743990692D+00  .176562500000D+03 -.203216174612D+01 -.773675083816D-08
      .157149403046D-09  .100000000000D+01  .237700000000D+04  .100000000000D+01
      .000000000000D+00  .000000000000D+00 -.107102096081D-07  .190000000000D+02
      .275118000000D+06  .000000000000D+00                                      
G11 2025 07 30 06 00 00 -.659616664052D-03  .989075488178D-11  .000000000000D+00
      .160000000000D+02 -.155312500000D+02  .426839208138D-08  .215503642832D+00
     -.774860382080D-06  .198089494370D-02  .945851206779D-05  .515370266342D+04
      .280800000000D+06  .391155481339D-07  .707279171828D+00  .428408384323D-07
      .965301008662D+00  .198781250000D+03 -.242043090706D+01 -.800926218935D-08
     -.268582616115D-09  .100000000000D+01  .237700000000D+04  .100000000000D+01
      .000000000000D+00  .000000000000D+00 -.884756445885D-08  .160000000000D+02
      .275118000000D+06  .000000000000D+00                                      
G13 2025 07 30 06 00 00  .700450502336D-03 -.341060513165D-12  .000000000000D+00
      .183000000000D+03 -.464687500000D+02  .437518224390D-08  .693450610990D+00
     -.250153243542D-05  .954576535150D-02  .618956983089D-05  .515368006516D+04
      .280800000000D+06 -.143423676491D-06  .290299644950D+01  .502914190292D-07
      .974694377853D+00  .268781250000D+03  .976324434323D+00 -.816784022333D-08
     -.174292974288D-09  .100000000000D+01  .237700000000D+04  .100000000000D+01
      .000000000000D+00  .000000000000D+00 -.116415321827D-07  .183000000000D+03
      .275118000000D+06  .000000000000D+00                                      
G15 2025 07 30 06 00 00  .322660431266D-03  .386535248253D-11  .000000000000D+00
      .640000000000D+02 -.266250000000D+02  .522307470488D-08 -.650619561716D-01
     -.132434070110D-05  .165563608753D-01  .498257577419D-05  .515360916138D+04
      .280800000000D+06 -.312924385071D-06  .259216998041D+01  .113621354103D-06
      .940148652896D+00  .275218750000D+03  .144115885081D+01 -.877500837146D-08
      .932181686252D-10  .100000000000D+01  .237700000000D+04  .100000000000D+01
      .000000000000D+00  .000000000000D+00 -.102445483208D-07  .640000000000D+02
      .275118000000D+06  .000000000000D+00                                      
G21 2025 07 30 06 00 00  .143993180245D-03  .267164068646D-10  .000000000000D+00
      .177000000000D+03  .326562500000D+02  .453090301601D-08  .215982938536D+01
      .167824327946D-05  .136001617648D-03  .699423253536D-05  .515363868904D+04
      .280800000000D+06  .540167093277D-07  .173241765829D+01  .353902578354D-07
      .959732056967D+00  .244937500000D+03  .980610044059D+00 -.820748473183D-08
      .321441960776D-09  .100000000000D+01  .237700000000D+04  .100000000000D+01
      .000000000000D+00  .000000000000D+00 -.838190317154D-08  .689000000000D+03
      .275118000000D+06  .000000000000D+00                                      
G29 2025 07 30 06 00 00 -.475914217532D-03  .500222085975D-11  .000000000000D+00
      .480000000000D+02 -.568750000000D+01  .472555398115D-08  .837300104979D+00
     -.474974513054D-06  .334533420391D-02  .470131635666D-05  .515361196518D+04
      .280800000000D+06 -.745058059692D-08 -.310037733882D+00  .186264514923D-08
      .965175728746D+00  .287000000000D+03  .274806880940D+01 -.829105964163D-08
     -.344300055765D-09  .100000000000D+01  .237700000000D+04  .100000000000D+01
      .000000000000D+00  .000000000000D+00 -.977888703346D-08  .480000000000D+02
      .275118000000D+06  .000000000000D+00                                      
G30 2025 07 30 06 00 00 -.783833675086D-04  .104591890704D-10  .000000000000D+00
      .101000000000D+03 -.206562500000D+02  .495413493103D-08 -.206783865492D+01
     -.137835741043D-05  .769978482276D-02  .101048499346D-04  .515364924622D+04
      .280800000000D+06  .135973095894D-06 -.248555378938D+01 -.111758708954D-07
      .935954364359D+00  .167468750000D+03 -.235303054217D+01 -.811212361680D-08
      .796461747257D-10  .100000000000D+01  .237700000000D+04  .100000000000D+01
      .000000000000D+00  .000000000000D+00  .372529029846D-08  .101000000000D+03
      .275118000000D+06  .000000000000D+00                                      
G18 2025 07 30 06 00 00 -.585057772696D-03  .727595761418D-11  .000000000000D+00
      .223000000000D+03 -.243750000000D+02  .399445209925D-08 -.107521020634D+01
     -.135600566864D-05  .542529509403D-02  .940449535847D-05  .515368580437D+04
      .280800000000D+06  .104308128357D-06  .681755313868D+00 -.167638063431D-06
      .973462047847D+00  .207093750000D+03 -.294066727176D+01 -.779568186430D-08
     -.271082720255D-09  .100000000000D+01  .237700000000D+04  .100000000000D+01
      .000000000000D+00  .000000000000D+00 -.838190317154D-08  .479000000000D+03
      .275136000000D+06  .000000000000D+00                                      
G24 2025 07 30 06 00 00 -.344807282090D-03  .100044417195D-10  .000000000000D+00
      .450000000000D+02 -.340625000000D+02  .519307345521D-08 -.909912623159D+00
     -.144168734550D-05  .170341596240D-01  .990740954876D-05  .515366913414D+04
      .280800000000D+06  .614672899246D-07 -.258435218423D+01  .333413481712D-06
      .934683252395D+00  .176406250000D+03  .107663178528D+01 -.847642450568D-08
     -.942896418278D-10  .100000000000D+01  .237700000000D+04  .100000000000D+01
      .000000000000D+00  .000000000000D+00  .232830643654D-08  .450000000000D+02
      .275142000000D+06  .000000000000D+00                                      
G20 2025 07 30 06 00 00  .363361556083D-03 -.113686837722D-12  .000000000000D+00
      .430000000000D+02  .320937500000D+02  .449590155806D-08 -.832426577725D+00
      .166520476341D-05  .339843600523D-02  .813603401184D-05  .515355233955D+04
      .280800000000D+06  .689178705215D-07  .152641585856D+01  .111758708954D-06
      .959030862776D+00  .222875000000D+03 -.225835227469D+01 -.818605526777D-08
      .258582199558D-09  .100000000000D+01  .237700000000D+04  .100000000000D+01
      .000000000000D+00  .000000000000D+00 -.838190317154D-08  .430000000000D+02
      .275166000000D+06  .000000000000D+00                                      
G11 2025 07 30 06 44 32 -.659589655697D-03  .989075488178D-11  .000000000000D+00
      .170000000000D+02 -.128125000000D+02  .426482050404D-08  .605139099044D+00
     -.596046447754D-06  .198130519129D-02  .961497426033D-05  .515370348358D+04
      .283472000000D+06  .260770320892D-07  .707257839556D+00  .391155481339D-07
      .965300285980D+00  .196468750000D+03 -.242033992087D+01 -.800533345427D-08
     -.276082928534D-09  .100000000000D+01  .237700000000D+04  .100000000000D+01
      .000000000000D+00  .000000000000D+00 -.884756445885D-08  .170000000000D+02
      .276318000000D+06  .000000000000D+00                                      
G23 2025 07 30 06 00 00  .518848653883D-03  .602540239925D-11  .000000000000D+00
      .227000000000D+03  .215000000000D+02  .381015870840D-08 -.213532182390D+01
      .118836760521D-05  .545574864373D-02  .753812491894D-05  .515366036987D+04
      .280800000000D+06 -.316649675369D-07  .168611147198D+01 -.484287738800D-07
      .984952796837D+00  .247593750000D+03 -.284668031939D+01 -.770460664208D-08
      .375015620906D-09  .100000000000D+01  .237700000000D+04  .100000000000D+01
      .000000000000D+00  .000000000000D+00 -.838190317154D-08  .739000000000D+03
      .277338000000D+06  .000000000000D+00                                      
G14 2025 07 30 06 00 00  .678357668221D-03  .443378667114D-11  .000000000000D+00
      .168000000000D+03  .727187500000D+02  .507664003386D-08 -.276765547870D+01
      .369362533092D-05  .607608631253D-02  .759959220886D-05  .515371470833D+04
      .280800000000D+06 -.484287738800D-07 -.141388201761D+01 -.782310962677D-07
      .942921558525D+00  .226625000000D+03 -.277365415673D+01 -.826248702289D-08
      .279654505876D-09  .100000000000D+01  .237700000000D+04  .100000000000D+01
      .000000000000D+00  .000000000000D+00 -.791624188423D-08  .168000000000D+03
      .279132000000D+06  .000000000000D+00                                      
